#dP2019  4  3  0  0  0.00000000      96 __u+U ITR00 FIT  IAC
## 2047 259200.00000000   900.00000000 58576 0.0000000000000
+  102   C01C02C03C04C05C06C07C08C09C10C11C12C13C14C16C20C22
+        C24C30E01E02E03E04E05E07E08E09E11E12E13E14E15E18E19
+        E21E24E25E26E27E30E31E33E36G01G02G03G04G05G06G07G08
+        G09G10G11G12G13G14G15G16G17G18G19G20G21G22G23G24G25
+        G26G27G28G29G30G31G32J01J02J03J07R01R02R03R04R05R07
+        R08R09R10R11R13R14R15R16R17R18R19R20R21R22R23R24R26
++        12 11 11 12 12  9  8  9  8  8  8  8  8  8  8 14 13
++         0 15  5  5  5  5  5  5  5  5  5  5  5  5  4  4  5
++         5  5  5  5  5  5  5  0  5  3  3  3  4  3  3  3  3
++         3  3  3  3  3  3  3  3  3  3  3  3  3  3  3  3  3
++         3  3  3  3  3  3  3  9  9  9 15  5  5  5  5  5  5
++         5  5  5  5  5  5  5  6  5  7  5  5  5  5  5  6  8
%c M  cc GPS ccc cccc cccc cccc cccc ccccc ccccc ccccc ccccc
%c cc cc ccc ccc cccc cccc cccc cccc ccccc ccccc ccccc ccccc
%f  0.0000000  0.000000000  0.00000000000  0.000000000000000
%f  0.0000000  0.000000000  0.00000000000  0.000000000000000
%i    0    0    0    0      0      0      0      0         0
%i    0    0    0    0      0      0      0      0         0
/* INFORMATION & ANALYSIS CENTER (IAC) OF MCC   (RAPID DATA)
/* S/V CLOCKS ARE ALIGNED TO GPS & GLONASS TIME RESPECTIVELY
/* USING THE BROADCAST EPHEMERIS                            
/* PCV:IGS14_2038 OL/AL:FES2004  NONE     YN ORB:CoN CLK:CoN
*  2019 04 03 20 30  0.00000000
PC01 -32336.014066  27047.885087   -996.102250    413.616328
PC02   4394.001789  41926.760672    814.313598   -417.566177
PC03 -14751.303413  39534.424620   -350.049336     61.868431
PC04 -39635.906959  14357.651585   -645.400484     41.268249
PC05  21909.733371  36031.724176   1130.366360   -195.625012
PC06  -7868.248273  26206.072670  32487.231610    627.082563
PC07 -23285.441014  25886.550410 -23944.385379     61.189279
PC08 -16564.625201  37722.409252  -8176.094240    140.110866
PC09   5903.288473  34240.129994  24333.420516    657.593182
PC10  -8945.407561  27403.619908 -30750.265442   -631.873449
PC11   9102.134828  26310.234863   1497.075668    -83.534375
PC12  -9525.699945  15683.256297 -20936.266438    546.863395
PC13  -7368.233198  40929.175829   6205.167722   -631.561301
PC14    578.006952  16370.319860  22663.089555    708.208507
PC16  -2562.030372  28760.686147  30802.506502   -485.521198
PC20  -2283.887603 -16443.419936 -22410.624302 999999.999999
PC22 -27451.252287  -2641.302425   4379.034962    324.712234
PC24      0.000000      0.000000      0.000000 999999.999999
PC30  -3354.649147 -26587.346683   7742.316020 999999.999999
PE01   3225.421283 -18305.868249  23030.575138   -576.090380
PE02  -3154.240268  18293.219421 -23059.225515     54.345544
PE03   7641.357187  21553.868032  18791.975663   -151.213071
PE04 -23073.610528 -18344.429577  -2676.942435   -253.961098
PE05 -12367.747407  12151.961692  23995.346547     80.330673
PE07  25058.476131   4323.720089 -15135.862337   -161.776390
PE08  23265.577293  18103.270555   2620.772976   6378.144267
PE09 -25049.424289  -4172.000914  15228.215623   6480.384524
PE11 -16505.362950   3251.864739 -24355.865755   5710.543828
PE12 -11700.700239 -18879.160151 -19544.414530   6462.205363
PE13  16416.941692  -3092.257802  24444.564044    385.108305
PE14  10467.044385 -10904.749292  17797.051684   -515.546070
PE15  11893.152635  18533.319594  19796.566588    915.023043
PE18 -15030.030309  14794.914635 -24865.298397   -615.075115
PE19  -5796.185349 -21038.379440 -19990.356605     -7.312926
PE21  21857.965246 -17455.834723   9673.207465   -527.300818
PE24 -27495.817956   6398.526242   8849.200482   6151.286654
PE25 -21886.635849  17443.835832  -9637.876235   1845.566534
PE26  11657.718368 -22864.867065  14752.534141   4723.496242
PE27  27408.664657  -6255.544821  -9274.740627    497.251851
PE30  17163.170324   8488.918291 -22590.072133   4980.184298
PE31 -16871.813792  -8595.949545  22751.852856    866.373155
PE33      0.000000      0.000000      0.000000 999999.999999
PE36 -11331.531639  23011.926284 -14772.410468    728.589834
PG01  13918.184121 -21876.465889   4729.004517   -194.189406
PG02 -16493.585035   3360.002785 -19901.673995   -180.074026
PG03  17283.564669 -12517.302869 -15795.045738    187.801341
PG04  -9317.838696 -23735.119485  -7424.037827    143.772321
PG05 -26569.257553   1961.003622  -1403.040107      1.161987
PG06 -11448.686022 -10215.259904 -21627.410497    239.577251
PG07   5016.943011 -24414.092955   8711.034571      2.188338
PG08  13833.811958  -6346.292182  21821.200824   -138.577865
PG09  -5106.129662 -22703.498665 -12836.587890    434.794906
PG10  14835.824299  11790.170777  18749.445846     81.795987
PG11  10019.997366 -20678.767113  12988.989334   -633.257555
PG12 -18685.523090  10750.376252 -15604.261120    254.438701
PG13 -17125.481133  -2973.705416  19980.942320    -69.223793
PG14  17855.471868  17112.209689  -9616.055785    -85.879856
PG15 -12792.120318   9302.605019  21087.617099   -320.257066
PG16  26798.814235   -160.345620    235.335170    -30.054378
PG17 -14591.105839 -22208.067183   -976.645906     33.502158
PG18  16444.206118 -15829.095620  12982.025361     40.835971
PG19 -17471.571459 -17347.915485 -10134.950573   -334.827639
PG20   4856.237347  15124.892078  21187.132414    523.672296
PG21    370.618324  23790.828740  12747.022475   -219.595850
PG22  22839.638373 -10163.702682  -8635.914239   -676.967381
PG23   5419.563341 -16628.211970 -19547.718856   -191.591948
PG24 -14892.693844  19987.985583   8532.060982    -64.272918
PG25  -6225.124116  15037.227578 -21147.032265   -741.328581
PG26  24181.110395   4634.613259 -10206.518286    166.566676
PG27  18665.175032   5304.903194  18173.488213   -100.364540
PG28 -12538.828200 -13289.620785  19852.138581    767.139143
PG29   -382.040874  20676.093484 -16697.430051    234.005361
PG30  -3862.322043 -19756.033421  17249.913282    -80.067003
PG31  12518.592205   8842.107269 -21661.921913     47.566155
PG32  17437.564423  19709.268764  -3985.042123   -149.554104
PJ01 -27504.667733  24477.188303  25571.878534   -332.236711
PJ02 -34855.568035  23646.966836   3233.668689      0.952977
PJ03 -20608.361258  21839.516491 -25014.814521     -0.344612
PJ07 -25382.064603  33676.633779     52.297286     -0.040400
PR01 -13627.447583   5403.794612  20883.614375     41.788321
PR02   7193.442378  13542.974824  20441.087118    361.943390
PR03  21156.887514  12488.486136   6988.372646     -6.823054
PR04  22696.255773   3819.105005 -10997.394061    301.079492
PR05  11487.312753  -6327.422655 -21869.605719     25.411036
PR07 -21383.304556 -12295.768575  -6387.952839    -17.649127
PR08 -22903.458930  -4233.652627  10446.749608     18.390257
PR09   3442.803038 -14985.663636  20342.015029     62.542701
PR10 -10611.052975  -5177.189077  22594.563233     46.841050
PR11 -20894.858671   8593.341108  11890.791100    -61.803417
PR13  -4927.114003  15542.972616 -19639.687094    -22.031366
PR14  10804.965435   5284.702188 -22487.130934     37.566489
PR15  20623.419897  -8049.205242 -12662.065261    101.085489
PR16  18398.433793 -17172.774895   4497.841619     10.429352
PR17   9106.418593  18699.684907  14759.427574    217.395824
PR18  10778.600873   2082.171694  23047.092290    -11.639006
PR19   6963.801480 -15651.829878  18900.542600    -23.536765
PR20  -1471.480462 -25337.000201   2263.739404   -373.816861
PR21  -9201.170862 -18286.951112 -15225.742501    -40.332844
PR22 -10434.780777    991.029100 -23246.202579    -12.720117
PR23  -4650.799207  19813.288851 -15388.499899    219.462749
PR24   2713.134354  25369.992883   -588.303677   -178.948127
PR26   -835.246734 -25064.214346   4731.305021      5.050687
EOF
